CZ-2D R/B               
1 28738U 05024B   26084.48034932  .00042977  00000+0  50058-3 0  9991
2 28738  97.3590 100.2219 0002972 356.1869   3.9365 15.61567796142248
ALOS (DAICHI)           
1 28931U 06002A   26084.43264916  .00001327  00000+0  23028-3 0  9996
2 28931  98.1243  40.3121 0000779 100.0566 260.0728 14.69856125 75794
H-2A R/B                
1 28932U 06002B   26084.64201254  .00010616  00000+0  52589-3 0  9991
2 28932  98.2440 233.0443 0052352 186.4070 173.6498 15.16761177 96853
RESURS-DK 1             
1 29228U 06021A   26084.73524088  .00002297  00000+0  13646-3 0  9991
2 29228  69.9337 195.5164 0000875  71.7996 288.3265 15.12846664 89950
CZ-4B R/B               
1 29507U 06046C   26084.83592333  .00003723  00000+0  18914-3 0  9995
2 29507  97.5563 129.7007 0032443 209.0385 150.9045 15.17062622 62496
CZ-2C R/B               
1 31114U 07010B   26084.57719572  .00000132  00000+0  79625-4 0  9999
2 31114  98.3996 197.0610 0057936 247.5032 112.0005 14.20251720981970
COSMO-SKYMED 1          
1 31598U 07023A   26084.84447500  .00002807  00000+0  25136-3 0  9996
2 31598  97.8879 276.0082 0000992  91.8057 268.3278 14.96650159 17326
COSMOS 2428             
1 31792U 07029A   26084.67597811 -.00000024  00000+0  12613-4 0  9997
2 31792  70.9439 169.7917 0009658 260.7058  99.2971 14.12948134966355
SL-16 R/B               
1 31793U 07029B   26084.63309539  .00000153  00000+0  10405-3 0  9990
2 31793  70.9752 138.8721 0002577 277.3173 247.6505 14.14842576967627
KORONAS-FOTON           
1 33504U 09003A   26084.84192653  .00012431  00000+0  27364-3 0  9990
2 33504  82.4279 259.0770 0011810  97.4405 262.8185 15.43738198948236
CZ-2C R/B               
1 37731U 11030B   26084.89230984  .00001473  00000+0  19172-3 0  9996
2 37731  97.8571  41.8345 0051217 298.5761 124.8643 14.81277575792495
H-2A R/B                
1 38341U 12025E   26084.65558428  .00003564  00000+0  32417-3 0  9999
2 38341  98.4758  52.9839 0042698 260.1706  99.4690 14.95276628750604
SHIJIAN-16 (SJ-16)      
1 39358U 13057A   26084.85207097  .00001305  00000+0  12997-3 0  9991
2 39358  74.9725 154.4931 0015239  70.7329 289.5506 14.92410309673913
SL-4 R/B                
1 39679U 14021B   26084.79284514  .00017461  00000+0  37834-3 0  9998
2 39679  51.6053 258.6863 0095971 161.6166 198.8326 15.39717175658756
ALOS-2                  
1 39766U 14029A   26084.88290909  .00001539  00000+0  21307-3 0  9995
2 39766  97.9186 183.2442 0001852 104.9912 255.1505 14.79434579639261
YAOGAN-29               
1 41038U 15069A   26084.85275231  .00000787  00000+0  10351-3 0  9994
2 41038  98.0124 113.3243 0000745  12.8046 347.3186 14.83014238558279
ASTRO-H (HITOMI)        
1 41337U 16012A   26084.82870470  .00002915  00000+0  16875-3 0  9990
2 41337  30.9988 252.3908 0009605 133.8904 226.2529 15.10103059554674
HXMT (HUIYAN)           
1 42758U 17034A   26084.83728332  .00004949  00000+0  24976-3 0  9993
2 42758  43.0145 286.8857 0032294 334.4839  25.4415 15.17665779484992
SAOCOM 1A               
1 43641U 18076A   26084.82802806  .00001094  00000+0  14392-3 0  9999
2 43641  97.8905 272.7729 0001516  85.3531 274.7855 14.82160098403758
H-2A R/B                
1 43682U 18084L   26084.50466467  .00020811  00000+0  48502-3 0  9995
2 43682  98.8710 305.2796 0024066 330.4775  29.5107 15.42005973408212
SAOCOM 1B               
1 46265U 20059A   26084.79174831  .00000373  00000+0  53404-4 0  9991
2 46265  97.8904 271.8348 0001468  85.7181 274.4200 14.82152065301135
CSS (TIANHE)            
1 48274U 21035A   26084.83710235  .00022588  00000+0  25952-3 0  9995
2 48274  41.4667 109.8475 0004448  22.3282 337.7750 15.61486977280138
COSMOS 2550             
1 48865U 21056A   26084.75401044 -.00000185  00000+0  21272-6 0  9994
2 48865  67.1434 352.2896 0008311 269.6174  90.4028 15.33836515265928
CZ-2C R/B               
1 52794U 22058K   26084.77221419  .00037524  00000+0  52496-3 0  9996
2 52794  50.1868 235.4871 0041527 269.6026  90.0186 15.55377493212634
CZ-2C R/B               
1 54039U 22132E   26084.44567851  .00049575  00000+0  53469-3 0  9990
2 54039  97.2967  88.2586 0018400  40.4738 319.7886 15.63313395192833
GSLV R/B                
1 54149U 22138AN  26084.49817565  .00002746  00000+0  23563-3 0  9994
2 54149  87.3865 161.0707 0024109  94.4790 265.9197 14.96876968186292
XRISM                   
1 57800U 23137A   26084.68666510  .00005694  00000+0  32067-3 0  9998
2 57800  31.0011 180.1788 0007937 200.4578 159.5743 15.11678380140215
ACS3                    
1 59588U 24077B   26084.76659181  .00016966  00000+0  13403-1 0  9997
2 59588  97.1984  22.2655 0071240  39.3445 321.2864 13.90324871 96435
SZ-21 MODULE            
1 66515U 25246C   26084.41173396  .00034230  00000+0  28093-3 0  9992
2 66515  41.4741 106.4894 0001002 208.3621 151.7166 15.69739008 20549
